{
  "type": "FeatureCollection",
  "features": [
    {
      "type": "Feature",
      "properties": {
        "norad_id": 66368,
        "name": "STARLINK-34861",
        "group": "last-30-days",
        "lat": 42.56047586316232,
        "lon": 81.80671901959195,
        "alt_km": 339.44678781681796,
        "timestamp": "2025-12-06T14:35:35.908480+00:00",
        "meta_object_name": "STARLINK-34861",
        "meta_object_id": "2025-254W",
        "meta_epoch": "2025-12-06T04:56:07.751328",
        "meta_mean_motion": 15.74288342,
        "meta_eccentricity": 0.00013867,
        "meta_inclination": 53.1581,
        "meta_ra_of_asc_node": 307.3171,
        "meta_arg_of_pericenter": 122.5028,
        "meta_mean_anomaly": 237.6126,
        "meta_ephemeris_type": 0,
        "meta_classification_type": "U",
        "meta_norad_cat_id": 66368,
        "meta_element_set_no": 999,
        "meta_rev_at_epoch": 465,
        "meta_bstar": 0.0019567965,
        "meta_mean_motion_dot": 0.00297576,
        "meta_mean_motion_ddot": 0,
        "tle_line1": "1 66368U 25254W   25340.20564527  .00297576  00000+0  19568-2 0  9998",
        "tle_line2": "2 66368  53.1581 307.3171 0001386 122.5028 237.6126 15.74288342  4650"
      },
      "geometry": {
        "type": "Point",
        "coordinates": [
          81.80671901959195,
          42.56047586316232
        ]
      }
    },
    {
      "type": "Feature",
      "properties": {
        "norad_id": 66369,
        "name": "STARLINK-35795",
        "group": "last-30-days",
        "lat": 38.43047272243363,
        "lon": 88.79309490890381,
        "alt_km": 335.155978232935,
        "timestamp": "2025-12-06T14:35:35.908490+00:00",
        "meta_object_name": "STARLINK-35795",
        "meta_object_id": "2025-254X",
        "meta_epoch": "2025-12-04T02:39:36.815328",
        "meta_mean_motion": 15.74349696,
        "meta_eccentricity": 0.00030446,
        "meta_inclination": 53.1567,
        "meta_ra_of_asc_node": 317.7168,
        "meta_arg_of_pericenter": 147.1731,
        "meta_mean_anomaly": 212.9479,
        "meta_ephemeris_type": 0,
        "meta_classification_type": "U",
        "meta_norad_cat_id": 66369,
        "meta_element_set_no": 999,
        "meta_rev_at_epoch": 432,
        "meta_bstar": 0.0021458163,
        "meta_mean_motion_dot": 0.00328479,
        "meta_mean_motion_ddot": 0,
        "tle_line1": "1 66369U 25254X   25338.11084277  .00328479  00000+0  21458-2 0  9993",
        "tle_line2": "2 66369  53.1567 317.7168 0003044 147.1731 212.9479 15.74349696  4324"
      },
      "geometry": {
        "type": "Point",
        "coordinates": [
          88.79309490890381,
          38.43047272243363
        ]
      }
    },
    {
      "type": "Feature",
      "properties": {
        "norad_id": 66370,
        "name": "STARLINK-35824",
        "group": "last-30-days",
        "lat": 39.24152420575326,
        "lon": 87.542255884966,
        "alt_km": 337.42968204027056,
        "timestamp": "2025-12-06T14:35:35.908502+00:00",
        "meta_object_name": "STARLINK-35824",
        "meta_object_id": "2025-254Y",
        "meta_epoch": "2025-12-05T22:49:39.151776",
        "meta_mean_motion": 15.75006861,
        "meta_eccentricity": 0.00012624,
        "meta_inclination": 53.1578,
        "meta_ra_of_asc_node": 308.5735,
        "meta_arg_of_pericenter": 61.4125,
        "meta_mean_anomaly": 298.7022,
        "meta_ephemeris_type": 0,
        "meta_classification_type": "U",
        "meta_norad_cat_id": 66370,
        "meta_element_set_no": 999,
        "meta_rev_at_epoch": 461,
        "meta_bstar": 0.0030357568,
        "meta_mean_motion_dot": 0.00487633,
        "meta_mean_motion_ddot": 0,
        "tle_line1": "1 66370U 25254Y   25339.95114759  .00487633  00000+0  30358-2 0  9994",
        "tle_line2": "2 66370  53.1578 308.5735 0001262  61.4125 298.7022 15.75006861  4614"
      },
      "geometry": {
        "type": "Point",
        "coordinates": [
          87.542255884966,
          39.24152420575326
        ]
      }
    },
    {
      "type": "Feature",
      "properties": {
        "norad_id": 66371,
        "name": "STARLINK-35804",
        "group": "last-30-days",
        "lat": 39.01016767697937,
        "lon": 87.90459783751096,
        "alt_km": 340.02577017022577,
        "timestamp": "2025-12-06T14:35:35.908512+00:00",
        "meta_object_name": "STARLINK-35804",
        "meta_object_id": "2025-254Z",
        "meta_epoch": "2025-12-06T04:54:40.234176",
        "meta_mean_motion": 15.74301804,
        "meta_eccentricity": 0.00013026,
        "meta_inclination": 53.1573,
        "meta_ra_of_asc_node": 307.3099,
        "meta_arg_of_pericenter": 88.6348,
        "meta_mean_anomaly": 271.4821,
        "meta_ephemeris_type": 0,
        "meta_classification_type": "U",
        "meta_norad_cat_id": 66371,
        "meta_element_set_no": 999,
        "meta_rev_at_epoch": 465,
        "meta_bstar": 0.0024745482,
        "meta_mean_motion_dot": 0.00380477,
        "meta_mean_motion_ddot": 0,
        "tle_line1": "1 66371U 25254Z   25340.20463234  .00380477  00000+0  24745-2 0  9991",
        "tle_line2": "2 66371  53.1573 307.3099 0001302  88.6348 271.4821 15.74301804  4656"
      },
      "geometry": {
        "type": "Point",
        "coordinates": [
          87.90459783751096,
          39.01016767697937
        ]
      }
    },
    {
      "type": "Feature",
      "properties": {
        "norad_id": 66372,
        "name": "STARLINK-35821",
        "group": "last-30-days",
        "lat": 33.77300339887448,
        "lon": 95.19417038466783,
        "alt_km": 335.77887090453896,
        "timestamp": "2025-12-06T14:35:35.908522+00:00",
        "meta_object_name": "STARLINK-35821",
        "meta_object_id": "2025-254AA",
        "meta_epoch": "2025-12-04T10:15:15.064416",
        "meta_mean_motion": 15.7441561,
        "meta_eccentricity": 0.0001567,
        "meta_inclination": 53.1569,
        "meta_ra_of_asc_node": 316.1358,
        "meta_arg_of_pericenter": 64.6576,
        "meta_mean_anomaly": 295.4606,
        "meta_ephemeris_type": 0,
        "meta_classification_type": "U",
        "meta_norad_cat_id": 66372,
        "meta_element_set_no": 999,
        "meta_rev_at_epoch": 437,
        "meta_bstar": 0.0030875,
        "meta_mean_motion_dot": 0.00483155,
        "meta_mean_motion_ddot": 0,
        "tle_line1": "1 66372U 25254AA  25338.42725769  .00483155  00000+0  30875-2 0  9995",
        "tle_line2": "2 66372  53.1569 316.1358 0001567  64.6576 295.4606 15.74415610  4375"
      },
      "geometry": {
        "type": "Point",
        "coordinates": [
          95.19417038466783,
          33.77300339887448
        ]
      }
    },
    {
      "type": "Feature",
      "properties": {
        "norad_id": 66373,
        "name": "STARLINK-35809",
        "group": "last-30-days",
        "lat": 37.84331136709038,
        "lon": 89.67530404252426,
        "alt_km": 340.67105893436656,
        "timestamp": "2025-12-06T14:35:35.908533+00:00",
        "meta_object_name": "STARLINK-35809",
        "meta_object_id": "2025-254AB",
        "meta_epoch": "2025-12-06T04:54:11.210688",
        "meta_mean_motion": 15.74264185,
        "meta_eccentricity": 0.00012118,
        "meta_inclination": 53.1574,
        "meta_ra_of_asc_node": 307.3079,
        "meta_arg_of_pericenter": 75.1212,
        "meta_mean_anomaly": 284.9942,
        "meta_ephemeris_type": 0,
        "meta_classification_type": "U",
        "meta_norad_cat_id": 66373,
        "meta_element_set_no": 999,
        "meta_rev_at_epoch": 465,
        "meta_bstar": 0.0020324191,
        "meta_mean_motion_dot": 0.00309212,
        "meta_mean_motion_ddot": 0,
        "tle_line1": "1 66373U 25254AB  25340.20429642  .00309212  00000+0  20324-2 0  9995",
        "tle_line2": "2 66373  53.1574 307.3079 0001211  75.1212 284.9942 15.74264185  4650"
      },
      "geometry": {
        "type": "Point",
        "coordinates": [
          89.67530404252426,
          37.84331136709038
        ]
      }
    },
    {
      "type": "Feature",
      "properties": {
        "norad_id": 66374,
        "name": "STARLINK-35831",
        "group": "last-30-days",
        "lat": 35.54666169699645,
        "lon": 92.90002015123133,
        "alt_km": 338.66289453040827,
        "timestamp": "2025-12-06T14:35:35.908542+00:00",
        "meta_object_name": "STARLINK-35831",
        "meta_object_id": "2025-254AC",
        "meta_epoch": "2025-12-05T15:10:54.606144",
        "meta_mean_motion": 15.7432573,
        "meta_eccentricity": 0.00041826,
        "meta_inclination": 53.1572,
        "meta_ra_of_asc_node": 310.1414,
        "meta_arg_of_pericenter": 66.4364,
        "meta_mean_anomaly": 293.7095,
        "meta_ephemeris_type": 0,
        "meta_classification_type": "U",
        "meta_norad_cat_id": 66374,
        "meta_element_set_no": 999,
        "meta_rev_at_epoch": 456,
        "meta_bstar": 0.0026107257,
        "meta_mean_motion_dot": 0.00402992,
        "meta_mean_motion_ddot": 0,
        "tle_line1": "1 66374U 25254AC  25339.63257646  .00402992  00000+0  26107-2 0  9998",
        "tle_line2": "2 66374  53.1572 310.1414 0004182  66.4364 293.7095 15.74325730  4566"
      },
      "geometry": {
        "type": "Point",
        "coordinates": [
          92.90002015123133,
          35.54666169699645
        ]
      }
    }
  ]
}